OBJECT_NAME,OBJECT_ID,EPOCH,MEAN_MOTION,ECCENTRICITY,INCLINATION,RA_OF_ASC_NODE,ARG_OF_PERICENTER,MEAN_ANOMALY,EPHEMERIS_TYPE,CLASSIFICATION_TYPE,NORAD_CAT_ID,ELEMENT_SET_NO,REV_AT_EPOCH,BSTAR,MEAN_MOTION_DOT,MEAN_MOTION_DDOT
ONEWEB-0602,2022-166AA,2026-06-03T07:09:17.548992,13.21825212,.00018816,87.9258,246.7646,94.4677,265.6672,0,U,54666,999,16971,.78320679E-4,.45E-6,0
ONEWEB-0603,2022-166AB,2026-06-03T07:17:47.525856,13.21813952,.00020315,87.9268,246.7191,99.4752,260.6612,0,U,54667,999,16964,.57252812E-2,.2378E-4,0
ONEWEB-0604,2022-166AC,2026-06-03T07:00:49.618944,13.21826652,.00019506,87.9267,246.7368,102.2293,257.9060,0,U,54668,999,16960,.48082667E-4,.33E-6,0
ONEWEB-0605,2022-166AD,2026-06-03T06:51:08.435520,13.21824522,.00026498,87.9259,246.7530,97.5133,262.6302,0,U,54669,999,16967,.23902479E-3,.112E-5,0
ONEWEB-0606,2022-166AE,2026-06-03T07:22:37.733088,13.21826193,.00019428,87.9259,246.7613,104.5254,255.6096,0,U,54670,999,16973,.12718593E-3,.66E-6,0
ONEWEB-0607,2022-166AF,2026-06-03T06:34:08.893056,13.21828047,.00020177,87.9264,246.7375,95.9162,264.2202,0,U,54671,999,16970,.21144688E-3,.1E-5,0
ONEWEB-0608,2022-166AG,2026-06-03T06:43:52.144896,13.21826954,.00025026,87.9271,246.7328,95.8878,264.2542,0,U,54672,999,16971,.11021991E-3,.59E-6,0
ONEWEB-0610,2022-166AH,2026-06-03T15:19:47.490240,13.21827712,.0002388,87.9257,246.6764,86.2508,273.8899,0,U,54673,999,16966,-.20617E-3,-.72E-6,0
ONEWEB-0611,2022-166AJ,2026-06-03T15:10:06.463200,13.21828212,.000198,87.9255,246.6741,103.9759,256.1595,0,U,54674,999,16965,.29709E-3,.136E-5,0
ONEWEB-0612,2022-166AK,2026-06-03T15:29:29.074560,13.21824038,.00021606,87.9266,246.6651,97.9600,262.1780,0,U,54675,999,16964,.15383793E-4,.19E-6,0
ONEWEB-0615,2022-166AL,2026-06-03T15:00:26.515296,13.21825594,.0001724,87.9258,246.6853,101.3617,258.7710,0,U,54676,999,16965,-.10716E-3,-.31E-6,0
ONEWEB-0655,2022-166AM,2026-06-03T07:10:31.165248,13.21825554,.00019178,87.9257,246.7519,92.5920,267.5434,0,U,54677,999,16960,.37725181E-4,.29E-6,0
ONEWEB-0659,2022-166AN,2026-06-03T14:50:42.991296,13.21828332,.0002025,87.9259,246.6882,102.2588,257.8773,0,U,54678,999,16973,.10574E-3,.57E-6,0
ONEWEB-0685,2022-166AP,2026-06-03T07:35:05.817984,13.21819777,.00020541,87.9254,246.7408,92.8094,267.3275,0,U,54679,999,16958,-.8997028E-5,.9E-7,0
ONEWEB-0712,2022-166AQ,2026-06-03T14:36:19.133856,13.16593689,.00017638,87.9107,231.4700,86.2258,273.9075,0,U,54680,999,17027,.7593962E-5,.16E-6,0
ONEWEB-0714,2022-166AR,2026-06-03T14:58:00.972768,13.21820229,.0001918,87.9260,246.6762,94.1489,265.9864,0,U,54681,999,16974,-.14224E-2,-.574E-5,0
DONGPO 09,2022-167D,2026-06-04T07:36:52.657632,15.36033218,.0003096,97.6895,325.7532,145.9677,214.1765,0,U,54685,999,19347,.37382013E-3,.1304E-3,0
DONGPO 08,2022-167E,2026-06-04T06:36:27.140832,15.33374391,.00076411,97.6857,322.9482,204.6312,155.4566,0,U,54686,999,19334,.38342189E-3,.123E-3,0
2022-167F,2022-167F,2026-06-04T07:23:42.475200,15.87403429,.00014458,97.6129,341.6803,156.1411,203.9927,0,U,54687,999,19478,.75302384E-3,.201264E-2,0
DONGPO 10,2022-167H,2026-06-04T06:55:46.710912,15.34174535,.00058131,97.6939,324.8834,147.2217,212.9386,0,U,54689,999,19338,.38423879E-3,.12638E-3,0
JILIN-1 GAOFEN 03D50,2022-167J,2026-06-04T06:44:48.581376,15.34220964,.00063477,97.6826,322.6006,142.8631,217.3051,0,U,54690,999,19337,.39391074E-3,.1298E-3,0
JILIN-1 GAOFEN 03D47,2022-167L,2026-06-04T06:23:30.062688,15.33536797,.00082211,97.6926,324.3140,156.4556,203.7064,0,U,54692,999,19336,.37756002E-3,.12174E-3,0
JILIN-1 GAOFEN 03D49,2022-167N,2026-06-04T07:31:06.921120,15.37084616,.00059434,97.6802,324.8537,170.3079,189.8281,0,U,54694,999,19351,.38367063E-3,.13854E-3,0
JILIN-1 GAOFEN 03D48,2022-167P,2026-06-04T07:01:40.269216,15.34928673,.00070876,97.6874,324.2612,154.1502,206.0096,0,U,54695,999,19341,.39221822E-3,.1322E-3,0
SHIYAN-20A (SY-20A),2022-169A,2026-06-04T07:04:11.758656,14.29525751,.00086488,59.9973,283.0542,164.1003,196.0305,0,U,54699,999,18151,.28915387E-4,-.62E-6,0
SHIYAN-20B (SY-20B),2022-169B,2026-06-04T07:09:56.187072,14.29537411,.00121708,59.9975,283.1077,191.7573,168.3180,0,U,54700,999,18151,.93334617E-4,.103E-5,0
GALAXY 35 (G-35),2022-170A,2026-06-04T04:22:38.760384,1.00272420,.00022482,0.0158,34.4261,43.2199,147.5532,0,U,54741,999,1276,0,-.15E-5,0
GALAXY 36 (G-36),2022-170B,2026-06-03T20:01:44.344128,1.00272722,.00029038,0.0175,242.0719,197.6370,24.0211,0,U,54742,999,1264,0,-.173E-5,0
METEOSAT-12 (MTG-I1),2022-170C,2026-06-04T05:00:15.059232,1.00271394,.00035924,0.7239,20.7612,69.3015,237.2366,0,U,54743,999,1284,0,.3E-7,0
YAOGAN-36 04A,2022-171A,2026-06-03T20:31:03.155232,15.20845910,.00069889,34.9910,305.0295,175.8788,184.1985,0,U,54746,999,19309,.39205019E-3,.8842E-4,0
