ONEWEB-0602             
1 54666U 22166AA  26154.29811978  .00000045  00000+0  78321-4 0  9990
2 54666  87.9258 246.7646 0001881  94.4677 265.6672 13.21825212169713
ONEWEB-0603             
1 54667U 22166AB  26154.30402229  .00002378  00000+0  57253-2 0  9998
2 54667  87.9268 246.7191 0002031  99.4752 260.6612 13.21813952169646
ONEWEB-0604             
1 54668U 22166AC  26154.29224096  .00000033  00000+0  48083-4 0  9990
2 54668  87.9267 246.7368 0001950 102.2293 257.9060 13.21826652169607
ONEWEB-0605             
1 54669U 22166AD  26154.28551430  .00000112  00000+0  23902-3 0  9995
2 54669  87.9259 246.7530 0002649  97.5133 262.6302 13.21824522169678
ONEWEB-0606             
1 54670U 22166AE  26154.30738117  .00000066  00000+0  12719-3 0  9991
2 54670  87.9259 246.7613 0001942 104.5254 255.6096 13.21826193169735
ONEWEB-0607             
1 54671U 22166AF  26154.27371404  .00000100  00000+0  21145-3 0  9992
2 54671  87.9264 246.7375 0002017  95.9162 264.2202 13.21828047169704
ONEWEB-0608             
1 54672U 22166AG  26154.28046464  .00000059  00000+0  11022-3 0  9995
2 54672  87.9271 246.7328 0002502  95.8878 264.2542 13.21826954169716
ONEWEB-0610             
1 54673U 22166AH  26154.63874410 -.00000072  00000+0 -20617-3 0  9992
2 54673  87.9257 246.6764 0002388  86.2508 273.8899 13.21827712169668
ONEWEB-0611             
1 54674U 22166AJ  26154.63201925  .00000136  00000+0  29709-3 0  9998
2 54674  87.9255 246.6741 0001980 103.9759 256.1595 13.21828212169656
ONEWEB-0612             
1 54675U 22166AK  26154.64547540  .00000019  00000+0  15384-4 0  9991
2 54675  87.9266 246.6651 0002160  97.9600 262.1780 13.21824038169641
ONEWEB-0615             
1 54676U 22166AL  26154.62530689 -.00000031  00000+0 -10716-3 0  9995
2 54676  87.9258 246.6853 0001724 101.3617 258.7710 13.21825594169653
ONEWEB-0655             
1 54677U 22166AM  26154.29897182  .00000029  00000+0  37725-4 0  9998
2 54677  87.9257 246.7519 0001917  92.5920 267.5434 13.21825554169607
ONEWEB-0659             
1 54678U 22166AN  26154.61855314  .00000057  00000+0  10574-3 0  9999
2 54678  87.9259 246.6882 0002025 102.2588 257.8773 13.21828332169731
ONEWEB-0685             
1 54679U 22166AP  26154.31603956  .00000009  00000+0 -89970-5 0  9996
2 54679  87.9254 246.7408 0002054  92.8094 267.3275 13.21819777169589
ONEWEB-0712             
1 54680U 22166AQ  26154.60855479  .00000016  00000+0  75940-5 0  9998
2 54680  87.9107 231.4700 0001763  86.2258 273.9075 13.16593689170273
ONEWEB-0714             
1 54681U 22166AR  26154.62362237 -.00000574  00000+0 -14224-2 0  9992
2 54681  87.9260 246.6762 0001918  94.1489 265.9864 13.21820229169742
DONGPO 09               
1 54685U 22167D   26155.31727613  .00013040  00000+0  37382-3 0  9998
2 54685  97.6895 325.7532 0003096 145.9677 214.1765 15.36033218193470
DONGPO 08               
1 54686U 22167E   26155.27531413  .00012300  00000+0  38342-3 0  9990
2 54686  97.6857 322.9482 0007641 204.6312 155.4566 15.33374391193340
2022-167F               
1 54687U 22167F   26155.30813050  .00201264  00000+0  75302-3 0  9991
2 54687  97.6129 341.6803 0001445 156.1411 203.9927 15.87403429194788
DONGPO 10               
1 54689U 22167H   26155.28873508  .00012638  00000+0  38424-3 0  9993
2 54689  97.6939 324.8834 0005813 147.2217 212.9386 15.34174535193383
JILIN-1 GAOFEN 03D50    
1 54690U 22167J   26155.28111784  .00012980  00000+0  39391-3 0  9990
2 54690  97.6826 322.6006 0006347 142.8631 217.3051 15.34220964193376
JILIN-1 GAOFEN 03D47    
1 54692U 22167L   26155.26632017  .00012174  00000+0  37756-3 0  9995
2 54692  97.6926 324.3140 0008221 156.4556 203.7064 15.33536797193362
JILIN-1 GAOFEN 03D49    
1 54694U 22167N   26155.31327455  .00013854  00000+0  38367-3 0  9995
2 54694  97.6802 324.8537 0005943 170.3079 189.8281 15.37084616193519
JILIN-1 GAOFEN 03D48    
1 54695U 22167P   26155.29282719  .00013220  00000+0  39222-3 0  9994
2 54695  97.6874 324.2612 0007087 154.1502 206.0096 15.34928673193411
SHIYAN-20A (SY-20A)     
1 54699U 22169A   26155.29458054 -.00000062  00000+0  28915-4 0  9996
2 54699  59.9973 283.0542 0008648 164.1003 196.0305 14.29525751181513
SHIYAN-20B (SY-20B)     
1 54700U 22169B   26155.29856698  .00000103  00000+0  93335-4 0  9998
2 54700  59.9975 283.1077 0012170 191.7573 168.3180 14.29537411181514
GALAXY 35 (G-35)        
1 54741U 22170A   26155.18239306 -.00000150  00000+0  00000+0 0  9999
2 54741   0.0158  34.4261 0002248  43.2199 147.5532  1.00272420 12762
GALAXY 36 (G-36)        
1 54742U 22170B   26154.83454102 -.00000173  00000+0  00000+0 0  9999
2 54742   0.0175 242.0719 0002903 197.6370  24.0211  1.00272722 12645
METEOSAT-12 (MTG-I1)    
1 54743U 22170C   26155.20850763  .00000003  00000+0  00000+0 0  9996
2 54743   0.7239  20.7612 0003592  69.3015 237.2366  1.00271394 12848
YAOGAN-36 04A           
1 54746U 22171A   26154.85489763  .00008842  00000+0  39205-3 0  9990
2 54746  34.9910 305.0295 0006988 175.8788 184.1985 15.20845910193096
